$$SOE
2461295.500000000, A.D. 2026-Sep-12 00:00:00.0000, 2.113196076606828E+08, 1.865048306303762E+08, 3.664952082353228E+07,
2461302.500000000, A.D. 2026-Sep-19 00:00:00.0000, 2.023525102419164E+08, 1.952529132336659E+08, 3.264472217094401E+07,
2461309.500000000, A.D. 2026-Sep-26 00:00:00.0000, 1.929524835204141E+08, 2.035831837882748E+08, 2.857009235776663E+07,
2461316.500000000, A.D. 2026-Oct-03 00:00:00.0000, 1.831346226656175E+08, 2.114725253618163E+08, 2.443360738406631E+07,
2461323.500000000, A.D. 2026-Oct-10 00:00:00.0000, 1.729153745714027E+08, 2.188982929635045E+08, 2.024358354318127E+07,
2461330.500000000, A.D. 2026-Oct-17 00:00:00.0000, 1.623125528588963E+08, 2.258384045685004E+08, 1.600866863437358E+07,
2461337.500000000, A.D. 2026-Oct-24 00:00:00.0000, 1.513453470731005E+08, 2.322714367327928E+08, 1.173783073146932E+07,
2461344.500000000, A.D. 2026-Oct-31 00:00:00.0000, 1.400343254422993E+08, 2.381767243891940E+08, 7.440344324055761E+06,
2461351.500000000, A.D. 2026-Nov-07 00:00:00.0000, 1.284014308120946E+08, 2.435344644572258E+08, 3.125773647874713E+06,
2461358.500000000, A.D. 2026-Nov-14 00:00:00.0000, 1.164699692493626E+08, 2.483258235981217E+08, -1.196046888157502E+06,
2461365.500000000, A.D. 2026-Nov-21 00:00:00.0000, 1.042645888212034E+08, 2.525330500858665E+08, -5.515035086113155E+06,
2461372.500000000, A.D. 2026-Nov-28 00:00:00.0000, 9.181124686105648E+07, 2.561395859297934E+08, -9.820886400003865E+06,
2461379.500000000, A.D. 2026-Dec-05 00:00:00.0000, 7.913716870055689E+07, 2.591301776684597E+08, -1.410310286163712E+07,
2461386.500000000, A.D. 2026-Dec-12 00:00:00.0000, 6.627079749150485E+07, 2.614909879207212E+08, -1.835102525139834E+07,
2461393.500000000, A.D. 2026-Dec-19 00:00:00.0000, 5.324173278445933E+07, 2.632097065639668E+08, -2.255386829191466E+07,
2461400.500000000, A.D. 2026-Dec-26 00:00:00.0000, 4.008065739445689E+07, 2.642756594455630E+08, -2.670075882680374E+07,
2461407.500000000, A.D. 2027-Jan-02 00:00:00.0000, 2.681925263981417E+07, 2.646799131311696E+08, -3.078077688197985E+07,
2461414.500000000, A.D. 2027-Jan-09 00:00:00.0000, 1.349010204048035E+07, 2.644153743405894E+08, -3.478299942598039E+07,
2461421.500000000, A.D. 2027-Jan-16 00:00:00.0000, 1.265836608452383E+05, 2.634768826586181E+08, -3.869654658635097E+07,
2461428.500000000, A.D. 2027-Jan-23 00:00:00.0000, -1.323724851756401E+07, 2.618612950256869E+08, -4.251063002507630E+07,
2461435.500000000, A.D. 2027-Jan-30 00:00:00.0000, -2.656679347212000E+07, 2.595675605011098E+08, -4.621460312704156E+07,
2461442.500000000, A.D. 2027-Feb-06 00:00:00.0000, -3.982704110795046E+07, 2.565967842150736E+08, -4.979801258499387E+07,
2461449.500000000, A.D. 2027-Feb-13 00:00:00.0000, -5.298271884768310E+07, 2.529522803857461E+08, -5.325065076015132E+07,
2461456.500000000, A.D. 2027-Feb-20 00:00:00.0000, -6.599844805943871E+07, 2.486396123777595E+08, -5.656260814315299E+07,
2461463.500000000, A.D. 2027-Feb-27 00:00:00.0000, -7.883890758521232E+07, 2.436666154689748E+08, -5.972432572936104E+07,
2461470.500000000, A.D. 2027-Mar-06 00:00:00.0000, -9.146899986484651E+07, 2.380434033218536E+08, -6.272664682840329E+07,
2461477.500000000, A.D. 2027-Mar-13 00:00:00.0000, -1.038540195980668E+08, 2.317823595194235E+08, -6.556086739555643E+07,
2461484.500000000, A.D. 2027-Mar-20 00:00:00.0000, -1.159598242758281E+08, 2.248981128522312E+08, -6.821878423734750E+07,
2461491.500000000, A.D. 2027-Mar-27 00:00:00.0000, -1.277530044985033E+08, 2.174074955767728E+08, -7.069274054800317E+07,
2461498.500000000, A.D. 2027-Apr-03 00:00:00.0000, -1.392010519468864E+08, 2.093294846419489E+08, -7.297566821838066E+07,
2461505.500000000, A.D. 2027-Apr-10 00:00:00.0000, -1.502725230008982E+08, 2.006851262307801E+08, -7.506112637843886E+07,
2461512.500000000, A.D. 2027-Apr-17 00:00:00.0000, -1.609371960705696E+08, 1.914974442058831E+08, -7.694333568415111E+07,
2461519.500000000, A.D. 2027-Apr-24 00:00:00.0000, -1.711662207207582E+08, 1.817913332699471E+08, -7.861720793100032E+07,
2461526.500000000, A.D. 2027-May-01 00:00:00.0000, -1.809322565665994E+08, 1.715934379969183E+08, -8.007837066123818E+07,
2461533.500000000, A.D. 2027-May-08 00:00:00.0000, -1.902096000648976E+08, 1.609320198405916E+08, -8.132318645453948E+07,
2461540.500000000, A.D. 2027-May-15 00:00:00.0000, -1.989742993258422E+08, 1.498368146341352E+08, -8.234876649967690E+07,
2461547.500000000, A.D. 2027-May-22 00:00:00.0000, -2.072042573578573E+08, 1.383388797233193E+08, -8.315297842639667E+07,
2461554.500000000, A.D. 2027-May-29 00:00:00.0000, -2.148793194625400E+08, 1.264704311263441E+08, -8.373444881750485E+07,
2461561.500000000, A.D. 2027-Jun-05 00:00:00.0000, -2.219813432254694E+08, 1.142646757742994E+08, -8.409256029513575E+07,
2461568.500000000, A.D. 2027-Jun-12 00:00:00.0000, -2.284942527292177E+08, 1.017556412294586E+08, -8.422744313606618E+07,
2461575.500000000, A.D. 2027-Jun-19 00:00:00.0000, -2.344040771959054E+08, 8.897800392275973E+07, -8.413996172166523E+07,
2461582.500000000, A.D. 2027-Jun-26 00:00:00.0000, -2.396989739031859E+08, 7.596691757349794E+07, -8.383169618999906E+07,
2461589.500000000, A.D. 2027-Jul-03 00:00:00.0000, -2.443692356088312E+08, 6.275784363236406E+07, -8.330491968106809E+07,
2461596.500000000, A.D. 2027-Jul-10 00:00:00.0000, -2.484072830387312E+08, 4.938638546866658E+07, -8.256257160873233E+07,
2461603.500000000, A.D. 2027-Jul-17 00:00:00.0000, -2.518076431914304E+08, 3.588812782633781E+07, -8.160822743552090E+07,
2461610.500000000, A.D. 2027-Jul-24 00:00:00.0000, -2.545669142608300E+08, 2.229848287759812E+07, -8.044606546554706E+07,
2461617.500000000, A.D. 2027-Jul-31 00:00:00.0000, -2.566837178606898E+08, 8.652544312792007E+06, -7.908083118345581E+07,
2461624.500000000, A.D. 2027-Aug-07 00:00:00.0000, -2.581586399509184E+08, -5.015048378885034E+06, -7.751779953846738E+07,
2461631.500000000, A.D. 2027-Aug-14 00:00:00.0000, -2.589941640407887E+08, -1.867023489451427E+07, -7.576273548887017E+07,
2461638.500000000, A.D. 2027-Aug-21 00:00:00.0000, -2.591945973755006E+08, -3.227965113851840E+07, -7.382185363370460E+07,
2461645.500000000, A.D. 2027-Aug-28 00:00:00.0000, -2.587659880156949E+08, -4.581073666965751E+07, -7.170177761878511E+07,
2461652.500000000, A.D. 2027-Sep-04 00:00:00.0000, -2.577160353076235E+08, -5.923182984532338E+07, -6.940949943370496E+07,
2461659.500000000, A.D. 2027-Sep-11 00:00:00.0000, -2.560539964154598E+08, -7.251225127624249E+07, -6.695233891582572E+07,
2461666.500000000, A.D. 2027-Sep-18 00:00:00.0000, -2.537905900098960E+08, -8.562237634770134E+07, -6.433790388040785E+07,
2461673.500000000, A.D. 2027-Sep-25 00:00:00.0000, -2.509378980344896E+08, -9.853369711858706E+07, -6.157405120942740E+07,
2461680.500000000, A.D. 2027-Oct-02 00:00:00.0000, -2.475092665235238E+08, -1.112188739272014E+08, -5.866884915822572E+07,
2461687.500000000, A.D. 2027-Oct-09 00:00:00.0000, -2.435192063995143E+08, -1.236517771804676E+08, -5.563054110287495E+07,
2461694.500000000, A.D. 2027-Oct-16 00:00:00.0000, -2.389832950538861E+08, -1.358075199406523E+08, -5.246751093504620E+07,
2461701.500000000, A.D. 2027-Oct-23 00:00:00.0000, -2.339180792336607E+08, -1.476624819256692E+08, -4.918825029235620E+07,
2461708.500000000, A.D. 2027-Oct-30 00:00:00.0000, -2.283409795427249E+08, -1.591943249514188E+08, -4.580132772649755E+07,
2461715.500000000, A.D. 2027-Nov-06 00:00:00.0000, -2.222701982925018E+08, -1.703819993471462E+08, -4.231535968133438E+07,
2461722.500000000, A.D. 2027-Nov-13 00:00:00.0000, -2.157246331501815E+08, -1.812057440963786E+08, -3.873898330319336E+07,
2461729.500000000, A.D. 2027-Nov-20 00:00:00.0000, -2.087237940531879E+08, -1.916470835755201E+08, -3.508083153696188E+07,
2461736.500000000, A.D. 2027-Nov-27 00:00:00.0000, -2.012877220608329E+08, -2.016888186040907E+08, -3.134951039985640E+07,
2461743.500000000, A.D. 2027-Dec-04 00:00:00.0000, -1.934369123746082E+08, -2.113150115481185E+08, -2.755357813600571E+07,
2461750.500000000, A.D. 2027-Dec-11 00:00:00.0000, -1.851922422098418E+08, -2.205109670670482E+08, -2.370152622511540E+07,
2461757.500000000, A.D. 2027-Dec-18 00:00:00.0000, -1.765749033084705E+08, -2.292632094409243E+08, -1.980176223031346E+07,
2461764.500000000, A.D. 2027-Dec-25 00:00:00.0000, -1.676063389528317E+08, -2.375594570493963E+08, -1.586259442278330E+07,
2461771.500000000, A.D. 2028-Jan-01 00:00:00.0000, -1.583081854093662E+08, -2.453885945208202E+08, -1.189221810028979E+07,
$$EOE